{
  "type": "FeatureCollection",
  "features": [
    {
      "type": "Feature",
      "properties": {
        "state": "Western Australia"
      },
      "geometry": {
        "type": "Polygon",
        "coordinates": [
          [
            [
              112,
              -14
            ],
            [
              129,
              -14
            ],
            [
              129,
              -35
            ],
            [
              115,
              -35
            ],
            [
              113,
              -30
            ],
            [
              112,
              -24
            ],
            [
              112,
              -14
            ]
          ]
        ]
      }
    },
    {
      "type": "Feature",
      "properties": {
        "state": "Northern Territory"
      },
      "geometry": {
        "type": "Polygon",
        "coordinates": [
          [
            [
              129,
              -11
            ],
            [
              138,
              -11
            ],
            [
              138,
              -26
            ],
            [
              129,
              -26
            ],
            [
              129,
              -11
            ]
          ]
        ]
      }
    },
    {
      "type": "Feature",
      "properties": {
        "state": "South Australia"
      },
      "geometry": {
        "type": "Polygon",
        "coordinates": [
          [
            [
              129,
              -26
            ],
            [
              141,
              -26
            ],
            [
              141,
              -38
            ],
            [
              132,
              -38
            ],
            [
              129,
              -35
            ],
            [
              129,
              -26
            ]
          ]
        ]
      }
    },
    {
      "type": "Feature",
      "properties": {
        "state": "Queensland"
      },
      "geometry": {
        "type": "Polygon",
        "coordinates": [
          [
            [
              138,
              -10
            ],
            [
              154,
              -10
            ],
            [
              154,
              -29
            ],
            [
              141,
              -29
            ],
            [
              141,
              -26
            ],
            [
              138,
              -26
            ],
            [
              138,
              -10
            ]
          ]
        ]
      }
    },
    {
      "type": "Feature",
      "properties": {
        "state": "New South Wales"
      },
      "geometry": {
        "type": "Polygon",
        "coordinates": [
          [
            [
              141,
              -29
            ],
            [
              153.8,
              -29
            ],
            [
              153.8,
              -37.7
            ],
            [
              149.5,
              -37.7
            ],
            [
              141,
              -34
            ],
            [
              141,
              -29
            ]
          ]
        ]
      }
    },
    {
      "type": "Feature",
      "properties": {
        "state": "Victoria"
      },
      "geometry": {
        "type": "Polygon",
        "coordinates": [
          [
            [
              141,
              -34
            ],
            [
              149.5,
              -37.7
            ],
            [
              147.5,
              -39.2
            ],
            [
              141,
              -38
            ],
            [
              141,
              -34
            ]
          ]
        ]
      }
    },
    {
      "type": "Feature",
      "properties": {
        "state": "Tasmania"
      },
      "geometry": {
        "type": "Polygon",
        "coordinates": [
          [
            [
              144.5,
              -40.6
            ],
            [
              148.5,
              -40.6
            ],
            [
              148.5,
              -43.8
            ],
            [
              144.5,
              -43.8
            ],
            [
              144.5,
              -40.6
            ]
          ]
        ]
      }
    },
    {
      "type": "Feature",
      "properties": {
        "state": "Australian Capital Territory"
      },
      "geometry": {
        "type": "Polygon",
        "coordinates": [
          [
            [
              148.75,
              -35.1
            ],
            [
              149.4,
              -35.1
            ],
            [
              149.4,
              -35.65
            ],
            [
              148.75,
              -35.65
            ],
            [
              148.75,
              -35.1
            ]
          ]
        ]
      }
    }
  ]
}